NORAD_CAT_ID,OBJECT_NAME,OBJECT_TYPE,EPOCH,MEAN_MOTION,ECCENTRICITY,INCLINATION,RA_OF_ASC_NODE,ARG_OF_PERICENTER,MEAN_ANOMALY,BSTAR,MEAN_MOTION_DOT,MEAN_MOTION_DDOT,TLE_LINE0,TLE_LINE1,TLE_LINE2,SEMIMAJOR_AXIS,PERIOD,APOGEE,PERIGEE,DECAYED
53868.0,STARLINK-4789,PAYLOAD,2024-07-19 22:30:47,15.08843329,0.0001016,53.216,67.4449,99.0492,261.0615,0.00024115,3.553e-05,0.0,0 STARLINK-4789,1 53868U 22114BC  24201.93805114  .00003553  00000-0  24115-3 0  9992,2 53868  53.2160  67.4449 0001016  99.0492 261.0615 15.08843329103158,6917.87,95.437,540.438,539.032,0.0
53868.0,STARLINK-4789,PAYLOAD,2024-07-20 00:06:10,15.08843672,0.0001206,53.2162,67.1502,117.4505,242.661,0.0002641,3.918e-05,0.0,0 STARLINK-4789,1 53868U 22114BC  24202.00429106  .00003918  00000-0  26410-3 0  9999,2 53868  53.2162  67.1502 0001206 117.4505 242.6610 15.08843672102620,6917.869,95.437,540.568,538.9,0.0
53868.0,STARLINK-4789,PAYLOAD,2024-07-20 20:46:12,15.08837852,0.0001307,53.2174,63.2789,91.606,268.5082,8.1808e-05,1.014e-05,0.0,0 STARLINK-4789,1 53868U 22114BC  24202.86541733  .00001014  00000-0  81808-4 0  9992,2 53868  53.2174  63.2789 0001307  91.6060 268.5082 15.08837852102755,6917.887,95.438,540.656,538.848,0.0
53868.0,STARLINK-4789,PAYLOAD,2024-07-20 22:21:35,15.0883858,0.0001277,53.2174,62.9805,88.3313,271.7825,9.8081e-05,1.273e-05,0.0,0 STARLINK-4789,1 53868U 22114BC  24202.93165776  .00001273  00000-0  98081-4 0  9997,2 53868  53.2174  62.9805 0001277  88.3313 271.7825 15.08838580103302,6917.885,95.438,540.633,538.866,0.0
53868.0,STARLINK-4789,PAYLOAD,2024-07-20 23:56:58,15.08839528,0.0001228,53.217,62.6853,96.8475,263.2657,8.1216e-05,1.005e-05,0.0,0 STARLINK-4789,1 53868U 22114BC  24202.99789700  .00001005  00000-0  81216-4 0  9997,2 53868  53.2170  62.6853 0001228  96.8475 263.2657 15.08839528103310,6917.882,95.438,540.596,538.897,0.0
53868.0,STARLINK-4789,PAYLOAD,2024-07-21 22:12:22,15.08844356,0.0001167,53.217,58.521,95.8558,264.2568,8.6482e-05,1.089e-05,0.0,0 STARLINK-4789,1 53868U 22114BC  24203.92525479  .00001089  00000-0  86482-4 0  9994,2 53868  53.2170  58.5210 0001167  95.8558 264.2568 15.08844356103456,6917.867,95.437,540.539,538.925,0.0
53868.0,STARLINK-4789,PAYLOAD,2024-07-21 23:47:45,15.08844646,0.000116,53.217,58.2234,96.6398,263.4726,8.9815e-05,1.142e-05,0.0,0 STARLINK-4789,1 53868U 22114BC  24203.99149445  .00001142  00000-0  89815-4 0  9999,2 53868  53.2170  58.2234 0001160  96.6398 263.4726 15.08844646102923,6917.866,95.437,540.534,538.929,0.0
53868.0,STARLINK-4789,PAYLOAD,2024-07-23 13:57:00,15.08849206,0.0002578,53.216,51.085,98.8663,261.2621,0.00019827,2.869e-05,0.0,0 STARLINK-4789,1 53868U 22114BC  24205.58125202  .00002869  00000-0  19827-3 0  9993,2 53868  53.2160  51.0850 0002578  98.8663 261.2621 15.08849206103164,6917.852,95.437,541.501,537.934,0.0
53868.0,STARLINK-4789,PAYLOAD,2024-07-25 13:38:34,15.08836758,0.0002265,53.2175,42.1647,100.9758,259.1489,-1.3669e-05,-5.06e-06,0.0,0 STARLINK-4789,1 53868U 22114BC  24207.56845897 -.00000506  00000-0 -13669-4 0  9999,2 53868  53.2175  42.1647 0002265 100.9758 259.1489 15.08836758103467,6917.89,95.438,541.322,538.188,0.0
53868.0,STARLINK-4789,PAYLOAD,2024-07-26 13:29:21,15.08836285,0.0001534,53.2237,37.7073,100.4112,259.7053,9.4323e-05,1.213e-05,0.0,0 STARLINK-4789,1 53868U 22114BC  24208.56205983  .00001213  00000-0  94323-4 0  9996,2 53868  53.2237  37.7073 0001534 100.4112 259.7053 15.08836285104151,6917.892,95.438,540.818,538.696,0.0
53868.0,STARLINK-4789,PAYLOAD,2024-07-26 19:50:54,15.08841985,0.00015,53.2268,36.5208,106.8337,253.282,0.00015276,2.144e-05,0.0,0 STARLINK-4789,1 53868U 22114BC  24208.82701443  .00002144  00000-0  15276-3 0  9990,2 53868  53.2268  36.5208 0001500 106.8337 253.2820 15.08841985103652,6917.874,95.437,540.777,538.702,0.0
53868.0,STARLINK-4789,PAYLOAD,2024-07-26 21:26:17,15.08844912,0.00014,53.2194,36.2188,93.2205,266.8948,0.00016294,2.307e-05,0.0,0 STARLINK-4789,1 53868U 22114BC  24208.89325233  .00002307  00000-0  16294-3 0  9998,2 53868  53.2194  36.2188 0001400  93.2205 266.8948 15.08844912104202,6917.865,95.437,540.699,538.762,0.0
53868.0,STARLINK-4789,PAYLOAD,2024-07-26 23:01:40,15.08845374,0.0001435,53.2183,35.921,93.9987,266.1169,0.0001642,2.327e-05,0.0,0 STARLINK-4789,1 53868U 22114BC  24208.95949175  .00002327  00000-0  16420-3 0  9995,2 53868  53.2183  35.9210 0001435  93.9987 266.1169 15.08845374104216,6917.864,95.437,540.722,538.736,0.0
53868.0,STARLINK-4789,PAYLOAD,2024-07-27 21:17:05,15.08829751,5.86e-05,53.2145,31.7576,97.8199,262.286,3.793e-05,3.16e-06,0.0,0 STARLINK-4789,1 53868U 22114BC  24209.88686736  .00000316  00000-0  37930-4 0  9995,2 53868  53.2145  31.7576 0000586  97.8199 262.2860 15.08829751104358,6917.912,95.438,540.182,539.371,0.0
53868.0,STARLINK-4789,PAYLOAD,2024-07-28 05:14:00,15.08844471,9.24e-05,53.216,30.2707,76.2052,283.9043,-3.1468e-05,-7.89e-06,0.0,0 STARLINK-4789,1 53868U 22114BC  24210.21806114 -.00000789  00000-0 -31468-4 0  9994,2 53868  53.2160  30.2707 0000924  76.2052 283.9043 15.08844471103864,6917.867,95.437,540.371,539.093,0.0
53868.0,STARLINK-4789,PAYLOAD,2024-07-28 21:07:51,15.0884567,0.0001289,53.2182,27.2967,80.1482,279.9655,-3.3021e-06,-3.4e-06,0.0,0 STARLINK-4789,1 53868U 22114BC  24210.88046082 -.00000340  00000-0 -33021-5 0  9998,2 53868  53.2182  27.2967 0001289  80.1482 279.9655 15.08845670104506,6917.863,95.437,540.62,538.836,0.0
53868.0,STARLINK-4789,PAYLOAD,2024-07-29 11:26:20,15.08838627,0.0001294,53.2181,24.62,86.9969,273.1171,8.7895e-05,1.111e-05,0.0,0 STARLINK-4789,1 53868U 22114BC  24211.47662344  .00001111  00000-0  87895-4 0  9991,2 53868  53.2181  24.6200 0001294  86.9969 273.1171 15.08838627104059,6917.885,95.438,540.645,538.854,0.0
53868.0,STARLINK-4789,PAYLOAD,2024-07-29 19:23:15,15.08834301,0.0001232,53.2176,23.1359,90.2677,269.8456,0.00021441,3.126e-05,0.0,0 STARLINK-4789,1 53868U 22114BC  24211.80782096  .00003126  00000-0  21441-3 0  9997,2 53868  53.2176  23.1359 0001232  90.2677 269.8456 15.08834301104646,6917.898,95.438,540.615,538.911,0.0
53868.0,STARLINK-4789,PAYLOAD,2024-07-30 04:55:34,15.08847537,0.0001262,53.2178,21.3517,85.452,274.6616,0.00015203,2.133e-05,0.0,0 STARLINK-4789,1 53868U 22114BC  24212.20525507  .00002133  00000-0  15203-3 0  9990,2 53868  53.2178  21.3517 0001262  85.4520 274.6616 15.08847537104164,6917.857,95.437,540.595,538.849,0.0
53868.0,STARLINK-4789,PAYLOAD,2024-07-30 20:49:26,15.08839025,0.0001379,53.2186,18.3778,90.2683,269.8467,3.8894e-06,-2.26e-06,0.0,0 STARLINK-4789,1 53868U 22114BC  24212.86766472 -.00000226  00000-0  38894-5 0  9995,2 53868  53.2186  18.3778 0001379  90.2683 269.8467 15.08839025104265,6917.883,95.438,540.702,538.794,0.0
53868.0,STARLINK-4789,PAYLOAD,2024-07-31 14:18:41,15.08831699,0.0001621,53.2171,15.1018,115.4256,244.6904,-8.658e-05,-1.665e-05,0.0,0 STARLINK-4789,1 53868U 22114BC  24213.59631022 -.00001665  00000-0 -86580-4 0  9991,2 53868  53.2171  15.1018 0001621 115.4256 244.6904 15.08831699104915,6917.906,95.438,540.892,538.649,0.0
53868.0,STARLINK-4789,PAYLOAD,2024-07-31 20:40:13,15.08837851,0.0001466,53.2184,13.9145,104.649,255.4664,-2.2944e-05,-6.53e-06,0.0,0 STARLINK-4789,1 53868U 22114BC  24213.86126649 -.00000653  00000-0 -22944-4 0  9995,2 53868  53.2184  13.9145 0001466 104.6490 255.4664 15.08837851104956,6917.887,95.438,540.766,538.738,0.0
53868.0,STARLINK-4789,PAYLOAD,2024-08-01 10:58:41,15.08840551,0.0002163,53.2184,11.24,92.6494,267.4746,7.1007e-05,8.42e-06,0.0,0 STARLINK-4789,1 53868U 22114BC  24214.45742509  .00000842  00000-0  71007-4 0  9992,2 53868  53.2184  11.2400 0002163  92.6494 267.4746 15.08840551104502,6917.879,95.438,541.24,538.247,0.0
53868.0,STARLINK-4789,PAYLOAD,2024-08-01 20:30:59,15.08847525,0.0001559,53.2179,9.4542,104.3666,255.7499,0.00013833,1.915e-05,0.0,0 STARLINK-4789,1 53868U 22114BC  24214.85485516  .00001915  00000-0  13833-3 0  9992,2 53868  53.2179   9.4542 0001559 104.3666 255.7499 15.08847525104561,6917.857,95.437,540.801,538.644,0.0
53868.0,STARLINK-4789,PAYLOAD,2024-08-02 02:52:31,15.08859703,0.0001448,53.2199,8.2675,106.3561,253.759,0.00024626,3.636e-05,0.0,0 STARLINK-4789,1 53868U 22114BC  24215.11980356  .00003636  00000-0  24626-3 0  9998,2 53868  53.2199   8.2675 0001448 106.3561 253.7590 15.08859703104606,6917.82,95.436,540.687,538.683,0.0
53868.0,STARLINK-4789,PAYLOAD,2024-08-02 14:00:16,15.0881145,0.0001372,53.2199,6.1877,90.7751,269.3398,1.8997e-05,1.4e-07,0.0,0 STARLINK-4789,1 53868U 22114BC  24215.58352310  .00000014  00000-0  18997-4 0  9994,2 53868  53.2199   6.1877 0001372  90.7751 269.3398 15.08811450104673,6917.968,95.439,540.782,538.884,0.0
53868.0,STARLINK-4789,PAYLOAD,2024-08-02 17:11:02,15.08819961,0.000158,53.2199,5.5953,105.3075,254.8091,-4.4315e-06,-3.58e-06,0.0,0 STARLINK-4789,1 53868U 22114BC  24215.71600079 -.00000358  00000-0 -44315-5 0  9994,2 53868  53.2199   5.5953 0001580 105.3075 254.8091 15.08819961105231,6917.942,95.439,540.9,538.714,0.0
53868.0,STARLINK-4789,PAYLOAD,2024-08-03 02:43:20,15.08838266,0.0001388,53.2196,3.8076,99.43,260.6849,5.9039e-05,6.52e-06,0.0,0 STARLINK-4789,1 53868U 22114BC  24216.11342940  .00000652  00000-0  59039-4 0  9992,2 53868  53.2196   3.8076 0001388  99.4300 260.6849 15.08838266104756,6917.886,95.438,540.711,538.79,0.0
53868.0,STARLINK-4789,PAYLOAD,2024-08-03 13:51:02,15.08839421,0.0001445,53.2199,1.7277,95.1915,264.9242,-2.6692e-06,-3.3e-06,0.0,0 STARLINK-4789,1 53868U 22114BC  24216.57711277 -.00000330  00000-0 -26692-5 0  9990,2 53868  53.2199   1.7277 0001445  95.1915 264.9242 15.08839421105364,6917.882,95.438,540.747,538.748,0.0
53868.0,STARLINK-4789,PAYLOAD,2024-08-03 20:12:34,15.08850243,0.000152,53.2211,0.5357,102.4956,257.6206,7.8805e-05,9.67e-06,0.0,0 STARLINK-4789,1 53868U 22114BC  24216.84206274  .00000967  00000-0  78805-4 0  9992,2 53868  53.2211   0.5357 0001520 102.4956 257.6206 15.08850243104864,6917.849,95.437,540.766,538.663,0.0
